      2.10          N: GNSS NAV DATA                        RINEX VERSION / TYPE
fic2rin                                 08/13/2020 00:17:23 PGM / RUN BY / DATE
                                                            END OF HEADER
25 20  8 12 12  0  0.0 3.447802737355e-05 4.774847184308e-12 0.000000000000e+00
    9.600000000000e+01 6.150000000000e+01 4.525545649999e-09-1.407824666325e+00
    3.354623913765e-06 9.077740949579e-03 5.874782800674e-06 5.153755197525e+03
    3.024000000000e+05 1.918524503708e-07-4.048591537460e-01 5.960464477539e-08
    9.647801088841e-01 2.672500000000e+02 9.389733971767e-01-8.073193423768e-09
    1.346484657919e-10 1.000000000000e+00 2.118000000000e+03 0.000000000000e+00
    2.400000000000e+00 0.000000000000e+00 5.587935447693e-09 9.600000000000e+01
    2.952000000000e+05 4.000000000000e+00
20 20  8 12 12  0  0.0 5.270596593618e-04-1.136868377216e-13 0.000000000000e+00
    6.500000000000e+01-1.993750000000e+01 5.091997816434e-09-2.753699854652e-01
   -1.151114702225e-06 5.440563661978e-03 7.972121238708e-06 5.153658891678e+03
    3.024000000000e+05 7.078051567078e-08 2.600208377322e+00-1.415610313416e-07
    9.350566549200e-01 2.175937500000e+02 2.688093255542e+00-8.347490563631e-09
    1.035757429169e-10 1.000000000000e+00 2.118000000000e+03 0.000000000000e+00
    2.400000000000e+00 0.000000000000e+00-8.847564458847e-09 6.500000000000e+01
    2.952000000000e+05 4.000000000000e+00
18 20  8 12 12  0  0.0 2.681580372155e-04 8.299139153678e-12 0.000000000000e+00
    4.000000000000e+01-5.025000000000e+01 4.349466887040e-09 7.566155544748e-01
   -2.861022949219e-06 8.879350498319e-04 7.327646017075e-06 5.153720258713e+03
    3.024000000000e+05-1.862645149231e-08 1.712541063489e+00-5.587935447693e-09
    9.644760925634e-01 2.385625000000e+02 2.644080330845e+00-8.012833766689e-09
   -8.928943354902e-11 1.000000000000e+00 2.118000000000e+03 0.000000000000e+00
    2.400000000000e+00 0.000000000000e+00-8.381903171539e-09 4.000000000000e+01
    2.952000000000e+05 4.000000000000e+00
17 20  8 12 12  0  0.0 3.099325112998e-04 5.684341886081e-12 0.000000000000e+00
    3.300000000000e+01-3.287500000000e+01 4.119814463952e-09 2.302025825804e+00
   -1.793727278709e-06 1.331634470262e-02 4.619359970093e-06 5.153741163254e+03
    3.024000000000e+05 1.471489667892e-07 6.992271829445e-01-1.210719347000e-07
    9.837831835927e-01 2.985625000000e+02-1.639240002434e+00-7.822111536628e-09
   -1.953652806053e-10 1.000000000000e+00 2.118000000000e+03 0.000000000000e+00
    2.400000000000e+00 0.000000000000e+00-1.117587089539e-08 3.300000000000e+01
    2.952000000000e+05 4.000000000000e+00
26 20  8 12 12  0  0.0 2.599959261715e-04 6.593836587854e-12 0.000000000000e+00
    1.800000000000e+02 6.434375000000e+01 4.960563770249e-09-1.984858570904e+00
    3.099441528320e-06 4.822926828638e-03 5.733221769333e-06 5.153661743164e+03
    3.024000000000e+05 1.676380634308e-08-4.415648128783e-01-6.519258022308e-08
    9.458002623887e-01 2.627812500000e+02 2.075383259929e-01-8.294274061236e-09
    1.357199389945e-10 1.000000000000e+00 2.118000000000e+03 0.000000000000e+00
    2.400000000000e+00 0.000000000000e+00 6.984919309616e-09 1.800000000000e+02
    2.952000000000e+05 4.000000000000e+00
28 20  8 12 12  0  0.0 6.902925670147e-04-3.865352482535e-12 0.000000000000e+00
    9.900000000000e+01 6.937500000000e+01 4.238390831705e-09-3.131311083927e+00
    3.447756171227e-06 1.838620519266e-02 5.370005965233e-06 5.153668247223e+03
    3.024000000000e+05 3.147870302200e-07-3.124692119855e-01 1.061707735062e-07
    9.767374848539e-01 2.800937500000e+02-1.401585061781e+00-7.778538293057e-09
    1.332198348551e-10 1.000000000000e+00 2.118000000000e+03 0.000000000000e+00
    2.400000000000e+00 0.000000000000e+00-1.117587089539e-08 9.900000000000e+01
    2.952000000000e+05 4.000000000000e+00
23 20  8 12 12  0  0.0 3.694510087371e-05 1.136868377216e-11 0.000000000000e+00
    1.180000000000e+02-1.731250000000e+01 4.481258090958e-09 5.772360491356e-01
   -9.201467037201e-07 9.311910253018e-04 8.122995495796e-06 5.153633457184e+03
    3.024000000000e+05-7.450580596924e-09 2.711636470178e+00-7.450580596924e-08
    9.615345651456e-01 2.288437500000e+02 1.692602552147e+00-7.983546832485e-09
    1.021471119801e-10 1.000000000000e+00 2.118000000000e+03 0.000000000000e+00
    3.840000000000e+02 6.300000000000e+01-8.381903171539e-09 3.740000000000e+02
    2.952000000000e+05 4.000000000000e+00
 9 20  8 12 11 59 44.0-2.691429108381e-04-6.025402399246e-12 0.000000000000e+00
    4.500000000000e+01-1.346875000000e+01 4.696624204679e-09 2.785171090492e+00
   -6.090849637985e-07 1.626797718927e-03 7.562339305878e-06 5.153672657013e+03
    3.023840000000e+05-4.284083843231e-08-2.516205832061e+00 4.656612873077e-08
    9.529533202966e-01 2.294375000000e+02 1.773559015235e+00-8.002833350132e-09
   -1.125046862718e-10 1.000000000000e+00 2.118000000000e+03 0.000000000000e+00
    2.400000000000e+00 0.000000000000e+00 1.396983861923e-09 4.500000000000e+01
    2.952300000000e+05 4.000000000000e+00
 2 20  8 12 11 59 28.0-5.010855384171e-04-5.456968210638e-12 0.000000000000e+00
    3.600000000000e+01-5.415625000000e+01 4.648765068296e-09 4.742346555369e-01
   -2.814456820488e-06 1.975645893253e-02 7.994472980499e-06 5.153757581711e+03
    3.023680000000e+05-2.514570951462e-07 1.618554239852e+00-5.960464477539e-08
    9.597827675590e-01 2.327812500000e+02-1.611698985252e+00-8.482139029423e-09
   -1.178620522847e-10 1.000000000000e+00 2.118000000000e+03 0.000000000000e+00
    2.400000000000e+00 0.000000000000e+00-1.769512891769e-08 3.600000000000e+01
    2.959500000000e+05 4.000000000000e+00
 4 20  8 12 12 14 40.0-1.236228272319e-04-4.433786671143e-12 0.000000000000e+00
    1.230000000000e+02-1.112500000000e+01 4.574476259583e-09 1.667021340484e+00
   -5.494803190231e-07 8.011731551960e-04 7.724389433861e-06 5.153641574860e+03
    3.032800000000e+05-1.862645149231e-08-2.467693363414e+00-2.235174179077e-08
    9.601712381404e-01 2.311875000000e+02-2.732105252750e+00-7.972117784991e-09
   -1.578637185147e-10 1.000000000000e+00 2.118000000000e+03 0.000000000000e+00
    2.400000000000e+00 0.000000000000e+00-4.190951585770e-09 1.230000000000e+02
    2.961000000000e+05 4.000000000000e+00
 2 20  8 12 14  0  0.0-5.011255852878e-04-5.456968210638e-12 0.000000000000e+00
    7.700000000000e+01-6.968750000000e+01 4.480186617756e-09 1.528965250786e+00
   -3.993511199951e-06 1.975796185434e-02 7.871538400650e-06 5.153761211395e+03
    3.096000000000e+05-7.078051567078e-08 1.618492773886e+00-5.215406417847e-07
    9.597839627631e-01 2.297187500000e+02-1.611633465540e+00-8.079265105250e-09
    3.214419607765e-11 1.000000000000e+00 2.118000000000e+03 0.000000000000e+00
    2.400000000000e+00 0.000000000000e+00-1.769512891769e-08 7.700000000000e+01
    3.024000000000e+05 4.000000000000e+00
 1 20  8 12 14  0  0.0 3.333529457450e-05 2.273736754432e-12 0.000000000000e+00
    1.110000000000e+02-4.553125000000e+01 4.178388332360e-09 1.282243810967e+00
   -2.285465598106e-06 1.008552487474e-02 8.299946784973e-06 5.153704835892e+03
    3.096000000000e+05-1.378357410431e-07 1.696394800075e+00 1.378357410431e-07
    9.808542972500e-01 2.326562500000e+02 8.186869125675e-01-7.975689362333e-09
   -3.821587755898e-11 1.000000000000e+00 2.118000000000e+03 0.000000000000e+00
    2.400000000000e+00 0.000000000000e+00 5.122274160385e-09 1.110000000000e+02
    3.024000000000e+05 4.000000000000e+00
 4 20  8 12 14  0  0.0-1.236503012478e-04-4.433786671143e-12 0.000000000000e+00
    1.240000000000e+02-1.093750000000e+01 4.619120976358e-09 2.588881080169e+00
   -6.426125764847e-07 8.011157624424e-04 7.640570402145e-06 5.153641611099e+03
    3.096000000000e+05 1.862645149231e-09-2.467743714128e+00 1.862645149231e-08
    9.601700370846e-01 2.320000000000e+02-2.732121820297e+00-8.005690612005e-09
   -1.796503403006e-10 1.000000000000e+00 2.118000000000e+03 0.000000000000e+00
    2.400000000000e+00 0.000000000000e+00-4.190951585770e-09 1.240000000000e+02
    3.024000000000e+05 4.000000000000e+00
 5 20  8 12 14  0  0.0-1.866696402431e-05-7.958078640513e-13 0.000000000000e+00
    6.400000000000e+01-2.453125000000e+01 4.713410618186e-09-2.076550137517e+00
   -1.238659024239e-06 6.076919729821e-03 7.625669240952e-06 5.153712614059e+03
    3.096000000000e+05 7.823109626770e-08 2.703580480213e+00-3.539025783539e-08
    9.535944456077e-01 2.285625000000e+02 8.431141159328e-01-8.008905031613e-09
    2.325096849617e-10 1.000000000000e+00 2.118000000000e+03 0.000000000000e+00
    2.400000000000e+00 0.000000000000e+00-1.117587089539e-08 6.400000000000e+01
    3.024000000000e+05 4.000000000000e+00
 3 20  8 12 14  0  0.0-2.678851597011e-04-1.114131009672e-11 0.000000000000e+00
    8.200000000000e+01-1.315625000000e+01 4.544832167645e-09 1.808403665557e-01
   -6.724148988724e-07 3.157652681693e-03 7.335096597672e-06 5.153766775131e+03
    3.096000000000e+05-1.117587089539e-08 2.736516161419e+00 8.009374141693e-08
    9.666958469223e-01 2.389062500000e+02 8.219661356060e-01-8.047120909172e-09
    1.260766801712e-10 1.000000000000e+00 2.118000000000e+03 0.000000000000e+00
    2.400000000000e+00 0.000000000000e+00 1.862645149231e-09 8.200000000000e+01
    3.024000000000e+05 4.000000000000e+00
 9 20  8 12 14  0  0.0-2.691866829991e-04-6.025402399246e-12 0.000000000000e+00
    4.600000000000e+01-1.190625000000e+01 4.765912805113e-09-2.445533103756e+00
   -6.463378667831e-07 1.627089688554e-03 7.582828402519e-06 5.153672098160e+03
    3.096000000000e+05 5.401670932770e-08-2.516263219412e+00-7.450580596924e-09
    9.529520665758e-01 2.309375000000e+02 1.773594565607e+00-8.042477858627e-09
   -2.000083311498e-10 1.000000000000e+00 2.118000000000e+03 0.000000000000e+00
    2.400000000000e+00 0.000000000000e+00 1.396983861923e-09 4.600000000000e+01
    3.024000000000e+05 4.000000000000e+00
